{
  "type": "FeatureCollection",
  "features": [
    {
      "type": "Feature",
      "properties": {
        "norad_id": 64694,
        "name": "GOSAT-GW (IBUKI GW)",
        "group": "resource",
        "lat": -74.15564494115712,
        "lon": 85.57765539098898,
        "alt_km": 677.177428550809,
        "timestamp": "2025-12-26T04:40:05.446202+00:00",
        "meta_object_name": "GOSAT-GW (IBUKI GW)",
        "meta_object_id": "2025-141A",
        "meta_epoch": "2025-12-25T22:35:41.590176",
        "meta_mean_motion": 14.67561138,
        "meta_eccentricity": 0.00014267,
        "meta_inclination": 98.044,
        "meta_ra_of_asc_node": 295.216,
        "meta_arg_of_pericenter": 82.1724,
        "meta_mean_anomaly": 277.9643,
        "meta_ephemeris_type": 0,
        "meta_classification_type": "U",
        "meta_norad_cat_id": 64694,
        "meta_element_set_no": 999,
        "meta_rev_at_epoch": 2643,
        "meta_bstar": 0.00018724095,
        "meta_mean_motion_dot": 1.015e-05,
        "meta_mean_motion_ddot": 0,
        "tle_line1": "1 64694U 25141A   25359.94145359  .00001015  00000+0  18724-3 0  9997",
        "tle_line2": "2 64694  98.0440 295.2160 0001426  82.1724 277.9643 14.67561138 26433"
      },
      "geometry": {
        "type": "Point",
        "coordinates": [
          85.57765539098898,
          -74.15564494115712
        ]
      }
    },
    {
      "type": "Feature",
      "properties": {
        "norad_id": 64876,
        "name": "IONOSFERA-M 3",
        "group": "resource",
        "lat": -8.517040164287092,
        "lon": 140.38546634378244,
        "alt_km": 825.5708625583056,
        "timestamp": "2025-12-26T04:40:05.446212+00:00",
        "meta_object_name": "IONOSFERA-M 3",
        "meta_object_id": "2025-155A",
        "meta_epoch": "2025-12-25T22:42:58.101984",
        "meta_mean_motion": 14.2144418,
        "meta_eccentricity": 0.00018133,
        "meta_inclination": 98.5801,
        "meta_ra_of_asc_node": 321.44,
        "meta_arg_of_pericenter": 38.6702,
        "meta_mean_anomaly": 321.4605,
        "meta_ephemeris_type": 0,
        "meta_classification_type": "U",
        "meta_norad_cat_id": 64876,
        "meta_element_set_no": 999,
        "meta_rev_at_epoch": 2179,
        "meta_bstar": 5.8658679e-05,
        "meta_mean_motion_dot": 8.6e-07,
        "meta_mean_motion_ddot": 0,
        "tle_line1": "1 64876U 25155A   25359.94650581  .00000086  00000+0  58659-4 0  9991",
        "tle_line2": "2 64876  98.5801 321.4400 0001813  38.6702 321.4605 14.21444180 21796"
      },
      "geometry": {
        "type": "Point",
        "coordinates": [
          140.38546634378244,
          -8.517040164287092
        ]
      }
    },
    {
      "type": "Feature",
      "properties": {
        "norad_id": 64877,
        "name": "IONOSFERA-M 4",
        "group": "resource",
        "lat": 8.971385476967074,
        "lon": -39.76545220539406,
        "alt_km": 821.4712668747898,
        "timestamp": "2025-12-26T04:40:05.446222+00:00",
        "meta_object_name": "IONOSFERA-M 4",
        "meta_object_id": "2025-155B",
        "meta_epoch": "2025-12-25T23:33:26.945568",
        "meta_mean_motion": 14.21445327,
        "meta_eccentricity": 0.00012524,
        "meta_inclination": 98.5802,
        "meta_ra_of_asc_node": 321.3934,
        "meta_arg_of_pericenter": 51.1171,
        "meta_mean_anomaly": 309.0119,
        "meta_ephemeris_type": 0,
        "meta_classification_type": "U",
        "meta_norad_cat_id": 64877,
        "meta_element_set_no": 999,
        "meta_rev_at_epoch": 2179,
        "meta_bstar": 6.0358025e-05,
        "meta_mean_motion_dot": 8.9e-07,
        "meta_mean_motion_ddot": 0,
        "tle_line1": "1 64877U 25155B   25359.98156187  .00000089  00000+0  60358-4 0  9991",
        "tle_line2": "2 64877  98.5802 321.3934 0001252  51.1171 309.0119 14.21445327 21792"
      },
      "geometry": {
        "type": "Point",
        "coordinates": [
          -39.76545220539406,
          8.971385476967074
        ]
      }
    },
    {
      "type": "Feature",
      "properties": {
        "norad_id": 64899,
        "name": "MICROCARB",
        "group": "resource",
        "lat": 81.78972346784158,
        "lon": -27.56081528538599,
        "alt_km": 634.861539279982,
        "timestamp": "2025-12-26T04:40:05.446232+00:00",
        "meta_object_name": "MICROCARB",
        "meta_object_id": "2025-156A",
        "meta_epoch": "2025-12-25T16:50:02.395104",
        "meta_mean_motion": 14.72077609,
        "meta_eccentricity": 0.001765,
        "meta_inclination": 98.001,
        "meta_ra_of_asc_node": 74.8383,
        "meta_arg_of_pericenter": 105.9485,
        "meta_mean_anomaly": 254.3669,
        "meta_ephemeris_type": 0,
        "meta_classification_type": "U",
        "meta_norad_cat_id": 64899,
        "meta_element_set_no": 999,
        "meta_rev_at_epoch": 2244,
        "meta_bstar": 0.00012739997,
        "meta_mean_motion_dot": 7.53e-06,
        "meta_mean_motion_ddot": 0,
        "tle_line1": "1 64899U 25156A   25359.70141661  .00000753  00000+0  12740-3 0  9996",
        "tle_line2": "2 64899  98.0010  74.8383 0017650 105.9485 254.3669 14.72077609 22440"
      },
      "geometry": {
        "type": "Point",
        "coordinates": [
          -27.56081528538599,
          81.78972346784158
        ]
      }
    },
    {
      "type": "Feature",
      "properties": {
        "norad_id": 64900,
        "name": "CO3D 3",
        "group": "resource",
        "lat": -58.47261640033287,
        "lon": 88.65875607753331,
        "alt_km": 512.8999717399593,
        "timestamp": "2025-12-26T04:40:05.446243+00:00",
        "meta_object_name": "CO3D 3",
        "meta_object_id": "2025-156B",
        "meta_epoch": "2025-12-25T22:36:34.293312",
        "meta_mean_motion": 15.20196953,
        "meta_eccentricity": 0.00013706,
        "meta_inclination": 97.4344,
        "meta_ra_of_asc_node": 76.1201,
        "meta_arg_of_pericenter": 64.0892,
        "meta_mean_anomaly": 296.0484,
        "meta_ephemeris_type": 0,
        "meta_classification_type": "U",
        "meta_norad_cat_id": 64900,
        "meta_element_set_no": 999,
        "meta_rev_at_epoch": 2321,
        "meta_bstar": 1.9145925e-05,
        "meta_mean_motion_dot": 3.47e-06,
        "meta_mean_motion_ddot": 0,
        "tle_line1": "1 64900U 25156B   25359.94206358  .00000347  00000+0  19146-4 0  9997",
        "tle_line2": "2 64900  97.4344  76.1201 0001370  64.0892 296.0484 15.20196953 23211"
      },
      "geometry": {
        "type": "Point",
        "coordinates": [
          88.65875607753331,
          -58.47261640033287
        ]
      }
    },
    {
      "type": "Feature",
      "properties": {
        "norad_id": 64901,
        "name": "CO3D 4",
        "group": "resource",
        "lat": -59.28242536329771,
        "lon": 89.06234851716061,
        "alt_km": 513.23760486834,
        "timestamp": "2025-12-26T04:40:05.446253+00:00",
        "meta_object_name": "CO3D 4",
        "meta_object_id": "2025-156C",
        "meta_epoch": "2025-12-25T22:36:47.670624",
        "meta_mean_motion": 15.20189592,
        "meta_eccentricity": 0.00013511,
        "meta_inclination": 97.4336,
        "meta_ra_of_asc_node": 76.1198,
        "meta_arg_of_pericenter": 149.8604,
        "meta_mean_anomaly": 210.2709,
        "meta_ephemeris_type": 0,
        "meta_classification_type": "U",
        "meta_norad_cat_id": 64901,
        "meta_element_set_no": 999,
        "meta_rev_at_epoch": 2321,
        "meta_bstar": 0.00023388941,
        "meta_mean_motion_dot": 4.997e-05,
        "meta_mean_motion_ddot": 0,
        "tle_line1": "1 64901U 25156C   25359.94221841  .00004997  00000+0  23389-3 0  9990",
        "tle_line2": "2 64901  97.4336  76.1198 0001351 149.8604 210.2709 15.20189592 23219"
      },
      "geometry": {
        "type": "Point",
        "coordinates": [
          89.06234851716061,
          -59.28242536329771
        ]
      }
    },
    {
      "type": "Feature",
      "properties": {
        "norad_id": 64902,
        "name": "CO3D 2",
        "group": "resource",
        "lat": 56.8444732819142,
        "lon": -92.20303945819815,
        "alt_km": 499.5755719999788,
        "timestamp": "2025-12-26T04:40:05.446264+00:00",
        "meta_object_name": "CO3D 2",
        "meta_object_id": "2025-156D",
        "meta_epoch": "2025-12-25T21:48:46.505376",
        "meta_mean_motion": 15.20195892,
        "meta_eccentricity": 7.938e-05,
        "meta_inclination": 97.434,
        "meta_ra_of_asc_node": 75.9859,
        "meta_arg_of_pericenter": 61.3032,
        "meta_mean_anomaly": 298.8283,
        "meta_ephemeris_type": 0,
        "meta_classification_type": "U",
        "meta_norad_cat_id": 64902,
        "meta_element_set_no": 999,
        "meta_rev_at_epoch": 2320,
        "meta_bstar": 0.0001451831,
        "meta_mean_motion_dot": 3.076e-05,
        "meta_mean_motion_ddot": 0,
        "tle_line1": "1 64902U 25156D   25359.90887159  .00003076  00000+0  14518-3 0  9998",
        "tle_line2": "2 64902  97.4340  75.9859 0000793  61.3032 298.8283 15.20195892 23206"
      },
      "geometry": {
        "type": "Point",
        "coordinates": [
          -92.20303945819815,
          56.8444732819142
        ]
      }
    }
  ]
}